{"fetched_at":"2026-03-29T16:36:15Z","count":15609,"tles":[{"name":"STARLINK-31716","line1":"1 59377U 24062D   26087.80894011  .00000321  00000+0  22969-4 0  9996","line2":"2 59377  53.1602 118.2066 0001052  82.3995 277.7125 15.30190268113234","category":"Starlink"}]}